ICEYE-X2                
1 43800U 18099AU  26195.17016525  .00004580  00000+0  22812-3 0  9996
2 43800  97.4346 248.5386 0009755 199.0652 161.0218 15.18034407416917
ICEYE-X4                
1 44390U 19038D   26195.21581459  .00007431  00000+0  25923-3 0  9997
2 44390  97.8746 229.7270 0012774 201.6215 158.4486 15.29869875385934
ICEYE-X7                
1 46496U 20068L   26195.18575957  .00006562  00000+0  21448-3 0  9995
2 46496  97.7504 162.9522 0005918 217.2235 142.8596 15.32083449318922
ICEYE-X6                
1 46497U 20068M   26195.12555495  .00001809  00000+0  13346-3 0  9992
2 46497  98.0988 190.0882 0007334  13.4022 346.7396 15.04663705317287
ICEYE-X21               
1 55049U 23001AS  26175.21618542  .01585954  23968-5  60214-3 0  9995
2 55049  97.3001 262.6152 0012377 285.9702  74.0225 16.24069885194757
ICEYE-X25               
1 56963U 23084AH  26195.16402416  .00033229  00000+0  37029-3 0  9995
2 56963  97.5907 343.3249 0004241 188.8185 171.2999 15.62761388172180
ICEYE-X31               
1 58288U 23174AJ  26195.19457723  .00011463  00000+0  33811-3 0  9992
2 58288  97.3778 270.9415 0002598 188.8340 171.2858 15.35159049148892
ICEYE-X34               
1 58294U 23174AQ  26195.17472851  .00116795  00000+0  92091-3 0  9995
2 58294  97.3868 287.7805 0001631 213.3570 146.7590 15.71068160149977
ICEYE-X35               
1 58302U 23174AY  26195.22544235  .00039164  00000+0  58109-3 0  9993
2 58302  97.3793 280.5930 0007873 110.9585 249.2512 15.55089221149545
ICEYE-X38               
1 59100U 24043C   26195.16732238  .00002625  00000+0  15232-3 0  9993
2 59100  97.8432 339.6647 0002458  24.2850 335.8495 15.13085937115756
ICEYE-X37               
1 59102U 24043E   26195.15259934  .00001446  00000+0  10276-3 0  9994
2 59102  97.8336 332.5842 0013761 278.0328  81.9337 15.06286843129141
ICEYE-X36               
1 59103U 24043F   26195.20704869  .00002703  00000+0  18376-3 0  9999
2 59103  97.8395 333.7671 0005283 218.3067 141.7785 15.07227997129213
ICEYE-X43               
1 60539U 24149BZ  26195.18412980  .00000828  00000+0  71735-4 0  9993
2 60539  97.6807 271.7872 0006510 351.9698   8.1420 14.99785372104161
ICEYE-X39               
1 60546U 24149CG  26195.16087295  .00002329  00000+0  19168-3 0  9995
2 60546  97.6788 271.8204 0006958  49.7329 310.4502 15.00068377104168
ICEYE-X33               
1 60548U 24149CJ  26194.16976218  .00002776  00000+0  22290-3 0  9994
2 60548  97.7342 273.1806 0002019  79.7590 280.3862 15.00875982104103
