{"fetched_at":"2026-07-14T17:40:50.181Z","source":"https://celestrak.org/NORAD/elements/gp.php?NAME=ICEYE&FORMAT=JSON","constellation":"iceye","records":[{"OBJECT_NAME":"ICEYE-X2","OBJECT_ID":"2018-099AU","EPOCH":"2026-07-14T04:05:02.277600","CLASSIFICATION_TYPE":"U","MEAN_MOTION":15.18034407,"ECCENTRICITY":0.0009755,"INCLINATION":97.4346,"RA_OF_ASC_NODE":248.5386,"ARG_OF_PERICENTER":199.0652,"MEAN_ANOMALY":161.0218,"EPHEMERIS_TYPE":0,"NORAD_CAT_ID":43800,"ELEMENT_SET_NO":999,"REV_AT_EPOCH":41691,"BSTAR":0.00022812,"MEAN_MOTION_DOT":0.0000458,"MEAN_MOTION_DDOT":0},{"OBJECT_NAME":"ICEYE-X4","OBJECT_ID":"2019-038D","EPOCH":"2026-07-14T05:10:46.380576","CLASSIFICATION_TYPE":"U","MEAN_MOTION":15.29869875,"ECCENTRICITY":0.0012774,"INCLINATION":97.8746,"RA_OF_ASC_NODE":229.727,"ARG_OF_PERICENTER":201.6215,"MEAN_ANOMALY":158.4486,"EPHEMERIS_TYPE":0,"NORAD_CAT_ID":44390,"ELEMENT_SET_NO":999,"REV_AT_EPOCH":38593,"BSTAR":0.00025923,"MEAN_MOTION_DOT":0.00007431,"MEAN_MOTION_DDOT":0},{"OBJECT_NAME":"ICEYE-X7","OBJECT_ID":"2020-068L","EPOCH":"2026-07-14T04:27:29.626848","CLASSIFICATION_TYPE":"U","MEAN_MOTION":15.32083449,"ECCENTRICITY":0.0005918,"INCLINATION":97.7504,"RA_OF_ASC_NODE":162.9522,"ARG_OF_PERICENTER":217.2235,"MEAN_ANOMALY":142.8596,"EPHEMERIS_TYPE":0,"NORAD_CAT_ID":46496,"ELEMENT_SET_NO":999,"REV_AT_EPOCH":31892,"BSTAR":0.00021448,"MEAN_MOTION_DOT":0.00006562,"MEAN_MOTION_DDOT":0},{"OBJECT_NAME":"ICEYE-X6","OBJECT_ID":"2020-068M","EPOCH":"2026-07-14T03:00:47.947680","CLASSIFICATION_TYPE":"U","MEAN_MOTION":15.04663705,"ECCENTRICITY":0.0007334,"INCLINATION":98.0988,"RA_OF_ASC_NODE":190.0882,"ARG_OF_PERICENTER":13.4022,"MEAN_ANOMALY":346.7396,"EPHEMERIS_TYPE":0,"NORAD_CAT_ID":46497,"ELEMENT_SET_NO":999,"REV_AT_EPOCH":31728,"BSTAR":0.00013346,"MEAN_MOTION_DOT":0.00001809,"MEAN_MOTION_DDOT":0},{"OBJECT_NAME":"ICEYE-X21","OBJECT_ID":"2023-001AS","EPOCH":"2026-06-24T05:11:18.420288","CLASSIFICATION_TYPE":"U","MEAN_MOTION":16.24069885,"ECCENTRICITY":0.00123774,"INCLINATION":97.3001,"RA_OF_ASC_NODE":262.6152,"ARG_OF_PERICENTER":285.9702,"MEAN_ANOMALY":74.0225,"EPHEMERIS_TYPE":0,"NORAD_CAT_ID":55049,"ELEMENT_SET_NO":999,"REV_AT_EPOCH":19475,"BSTAR":0.000602142,"MEAN_MOTION_DOT":0.01585954,"MEAN_MOTION_DDOT":0.000002396838},{"OBJECT_NAME":"ICEYE-X25","OBJECT_ID":"2023-084AH","EPOCH":"2026-07-14T03:56:11.687424","CLASSIFICATION_TYPE":"U","MEAN_MOTION":15.62761388,"ECCENTRICITY":0.0004241,"INCLINATION":97.5907,"RA_OF_ASC_NODE":343.3249,"ARG_OF_PERICENTER":188.8185,"MEAN_ANOMALY":171.2999,"EPHEMERIS_TYPE":0,"NORAD_CAT_ID":56963,"ELEMENT_SET_NO":999,"REV_AT_EPOCH":17218,"BSTAR":0.00037029,"MEAN_MOTION_DOT":0.00033229,"MEAN_MOTION_DDOT":0},{"OBJECT_NAME":"ICEYE-X31","OBJECT_ID":"2023-174AJ","EPOCH":"2026-07-14T04:40:11.472672","CLASSIFICATION_TYPE":"U","MEAN_MOTION":15.35159049,"ECCENTRICITY":0.0002598,"INCLINATION":97.3778,"RA_OF_ASC_NODE":270.9415,"ARG_OF_PERICENTER":188.834,"MEAN_ANOMALY":171.2858,"EPHEMERIS_TYPE":0,"NORAD_CAT_ID":58288,"ELEMENT_SET_NO":999,"REV_AT_EPOCH":14889,"BSTAR":0.00033811,"MEAN_MOTION_DOT":0.00011463,"MEAN_MOTION_DDOT":0},{"OBJECT_NAME":"ICEYE-X34","OBJECT_ID":"2023-174AQ","EPOCH":"2026-07-14T04:11:36.543264","CLASSIFICATION_TYPE":"U","MEAN_MOTION":15.7106816,"ECCENTRICITY":0.0001631,"INCLINATION":97.3868,"RA_OF_ASC_NODE":287.7805,"ARG_OF_PERICENTER":213.357,"MEAN_ANOMALY":146.759,"EPHEMERIS_TYPE":0,"NORAD_CAT_ID":58294,"ELEMENT_SET_NO":999,"REV_AT_EPOCH":14997,"BSTAR":0.00092091,"MEAN_MOTION_DOT":0.00116795,"MEAN_MOTION_DDOT":0},{"OBJECT_NAME":"ICEYE-X35","OBJECT_ID":"2023-174AY","EPOCH":"2026-07-14T05:24:38.219040","CLASSIFICATION_TYPE":"U","MEAN_MOTION":15.55089221,"ECCENTRICITY":0.0007873,"INCLINATION":97.3793,"RA_OF_ASC_NODE":280.593,"ARG_OF_PERICENTER":110.9585,"MEAN_ANOMALY":249.2512,"EPHEMERIS_TYPE":0,"NORAD_CAT_ID":58302,"ELEMENT_SET_NO":999,"REV_AT_EPOCH":14954,"BSTAR":0.00058109,"MEAN_MOTION_DOT":0.00039164,"MEAN_MOTION_DDOT":0},{"OBJECT_NAME":"ICEYE-X38","OBJECT_ID":"2024-043C","EPOCH":"2026-07-14T04:00:56.653632","CLASSIFICATION_TYPE":"U","MEAN_MOTION":15.13085937,"ECCENTRICITY":0.0002458,"INCLINATION":97.8432,"RA_OF_ASC_NODE":339.6647,"ARG_OF_PERICENTER":24.285,"MEAN_ANOMALY":335.8495,"EPHEMERIS_TYPE":0,"NORAD_CAT_ID":59100,"ELEMENT_SET_NO":999,"REV_AT_EPOCH":11575,"BSTAR":0.00015232,"MEAN_MOTION_DOT":0.00002625,"MEAN_MOTION_DDOT":0},{"OBJECT_NAME":"ICEYE-X37","OBJECT_ID":"2024-043E","EPOCH":"2026-07-14T03:39:44.582976","CLASSIFICATION_TYPE":"U","MEAN_MOTION":15.06286843,"ECCENTRICITY":0.0013761,"INCLINATION":97.8336,"RA_OF_ASC_NODE":332.5842,"ARG_OF_PERICENTER":278.0328,"MEAN_ANOMALY":81.9337,"EPHEMERIS_TYPE":0,"NORAD_CAT_ID":59102,"ELEMENT_SET_NO":999,"REV_AT_EPOCH":12914,"BSTAR":0.00010276,"MEAN_MOTION_DOT":0.00001446,"MEAN_MOTION_DDOT":0},{"OBJECT_NAME":"ICEYE-X36","OBJECT_ID":"2024-043F","EPOCH":"2026-07-14T04:58:09.006816","CLASSIFICATION_TYPE":"U","MEAN_MOTION":15.07227997,"ECCENTRICITY":0.0005283,"INCLINATION":97.8395,"RA_OF_ASC_NODE":333.7671,"ARG_OF_PERICENTER":218.3067,"MEAN_ANOMALY":141.7785,"EPHEMERIS_TYPE":0,"NORAD_CAT_ID":59103,"ELEMENT_SET_NO":999,"REV_AT_EPOCH":12921,"BSTAR":0.00018376,"MEAN_MOTION_DOT":0.00002703,"MEAN_MOTION_DDOT":0},{"OBJECT_NAME":"ICEYE-X43","OBJECT_ID":"2024-149BZ","EPOCH":"2026-07-14T04:25:08.814720","CLASSIFICATION_TYPE":"U","MEAN_MOTION":14.99785372,"ECCENTRICITY":0.000651,"INCLINATION":97.6807,"RA_OF_ASC_NODE":271.7872,"ARG_OF_PERICENTER":351.9698,"MEAN_ANOMALY":8.142,"EPHEMERIS_TYPE":0,"NORAD_CAT_ID":60539,"ELEMENT_SET_NO":999,"REV_AT_EPOCH":10416,"BSTAR":0.000071735,"MEAN_MOTION_DOT":0.00000828,"MEAN_MOTION_DDOT":0},{"OBJECT_NAME":"ICEYE-X39","OBJECT_ID":"2024-149CG","EPOCH":"2026-07-14T03:51:39.422880","CLASSIFICATION_TYPE":"U","MEAN_MOTION":15.00068377,"ECCENTRICITY":0.0006958,"INCLINATION":97.6788,"RA_OF_ASC_NODE":271.8204,"ARG_OF_PERICENTER":49.7329,"MEAN_ANOMALY":310.4502,"EPHEMERIS_TYPE":0,"NORAD_CAT_ID":60546,"ELEMENT_SET_NO":999,"REV_AT_EPOCH":10416,"BSTAR":0.00019168,"MEAN_MOTION_DOT":0.00002329,"MEAN_MOTION_DDOT":0},{"OBJECT_NAME":"ICEYE-X33","OBJECT_ID":"2024-149CJ","EPOCH":"2026-07-13T04:04:27.452352","CLASSIFICATION_TYPE":"U","MEAN_MOTION":15.00875982,"ECCENTRICITY":0.00020198,"INCLINATION":97.7342,"RA_OF_ASC_NODE":273.1806,"ARG_OF_PERICENTER":79.759,"MEAN_ANOMALY":280.3862,"EPHEMERIS_TYPE":0,"NORAD_CAT_ID":60548,"ELEMENT_SET_NO":999,"REV_AT_EPOCH":10410,"BSTAR":0.00022290095,"MEAN_MOTION_DOT":0.00002776,"MEAN_MOTION_DDOT":0}]}
